ONEWEB-0300             
1 49089U 21075Q   25072.93644283  .00000385  00000+0  10361-2 0  9998
2 49089  87.8798  82.2603 0002200  95.7370 264.4010 13.12442668174832
ONEWEB-0301             
1 49090U 21075R   25072.92020770  .00000205  00000+0  53344-3 0  9998
2 49090  87.8797  82.2687 0002188  94.3211 265.8167 13.12444464174192
ONEWEB-0302             
1 49091U 21075S   25072.75476270 -.00000175  00000+0 -52242-3 0  9994
2 49091  87.8798  82.3023 0001660  78.1801 281.9514 13.12443951174159
ONEWEB-0304             
1 49092U 21075T   25072.08393250  .00000107  00000+0  24191-3 0  9992
2 49092  87.9010  97.7203 0001787  93.9995 266.1341 13.17650414172854
ONEWEB-0305             
1 49093U 21075U   25072.60872751  .00000085  00000+0  18654-3 0  9991
2 49093  87.9006  97.5954 0001587 103.2446 256.8862 13.17648914172952
ONEWEB-0308             
1 49094U 21075V   25072.74827815 -.00000314  00000+0 -90717-3 0  9995
2 49094  87.8798  82.2996 0001978  90.7147 269.4208 13.12443294174167
ONEWEB-0309             
1 49095U 21075W   25072.61211404  .00000062  00000+0  12703-3 0  9990
2 49095  87.9010  97.6078 0001778  78.3827 281.7504 13.17648820172927
ONEWEB-0310             
1 49096U 21075X   25072.91532845  .00000047  00000+0  96186-4 0  9990
2 49096  87.8809  82.2990 0001869  85.3400 274.7942 13.12445365174814
